{
    "links": {
        "self": "http://www.neowsapp.com/rest/v1/neo/3693774?api_key=iIulBulltgU6a56xZRHN4H3l9WmuAYTsLGpBGhQ2"
    },
    "id": "3693774",
    "neo_reference_id": "3693774",
    "name": "(2014 UY7)",
    "designation": "2014 UY7",
    "nasa_jpl_url": "http://ssd.jpl.nasa.gov/sbdb.cgi?sstr=3693774",
    "absolute_magnitude_h": 24.8,
    "estimated_diameter": {
        "kilometers": {
            "estimated_diameter_min": 0.0291443905,
            "estimated_diameter_max": 0.0651688382
        },
        "meters": {
            "estimated_diameter_min": 29.1443904535,
            "estimated_diameter_max": 65.1688382168
        },
        "miles": {
            "estimated_diameter_min": 0.018109479,
            "estimated_diameter_max": 0.0404940262
        },
        "feet": {
            "estimated_diameter_min": 95.6180819754,
            "estimated_diameter_max": 213.8085311752
        }
    },
    "is_potentially_hazardous_asteroid": false,
    "close_approach_data": [
        {
            "close_approach_date": "1905-11-24",
            "close_approach_date_full": "1905-Nov-24 21:42",
            "epoch_date_close_approach": -2022891480000,
            "relative_velocity": {
                "kilometers_per_second": "16.5098782183",
                "kilometers_per_hour": "59435.5615858951",
                "miles_per_hour": "36930.9465865247"
            },
            "miss_distance": {
                "astronomical": "0.2925041076",
                "lunar": "113.7840978564",
                "kilometers": "43757991.463210812",
                "miles": "27189955.0802687256"
            },
            "orbiting_body": "Earth"
        },
        {
            "close_approach_date": "2014-10-15",
            "close_approach_date_full": "2014-Oct-15 12:09",
            "epoch_date_close_approach": 1413374940000,
            "relative_velocity": {
                "kilometers_per_second": "7.3280129369",
                "kilometers_per_hour": "26380.8465727677",
                "miles_per_hour": "16392.0321385067"
            },
            "miss_distance": {
                "astronomical": "0.0333881531",
                "lunar": "12.9879915559",
                "kilometers": "4994796.586993897",
                "miles": "3103622.6822618986"
            },
            "orbiting_body": "Earth"
        }
    ],
    "orbital_data": {
        "orbit_id": "13",
        "orbit_determination_date": "2017-04-06 08:38:04",
        "first_observation_date": "2014-10-21",
        "last_observation_date": "2014-11-26",
        "data_arc_in_days": 36,
        "observations_used": 61,
        "orbit_uncertainty": "7",
        "minimum_orbit_intersection": ".0207278",
        "jupiter_tisserand_invariant": "3.259",
        "epoch_osculation": "2459000.5",
        "eccentricity": ".5794572710290309",
        "semi_major_axis": "2.420389050764657",
        "inclination": "3.598187878445239",
        "ascending_node_longitude": "199.880357879816",
        "orbital_period": "1375.39105744517",
        "perihelion_distance": "1.017877016580022",
        "perihelion_argument": "180.8004989632805",
        "aphelion_distance": "3.822901084949292",
        "perihelion_time": "2458325.986446771504",
        "mean_anomaly": "176.5497004272467",
        "mean_motion": ".2617437404811334",
        "equinox": "J2000",
        "orbit_class": {
            "orbit_class_type": "AMO",
            "orbit_class_description": "Near-Earth asteroid orbits similar to that of 1221 Amor",
            "orbit_class_range": "1.017 AU < q (perihelion) < 1.3 AU"
        }
    },
    "is_sentry_object": false
}